[{"OBJECT_NAME":"ONEWEB-0505","OBJECT_ID":"2022-138L","EPOCH":"2026-03-11T04:04:31.509696","MEAN_MOTION":13.19724923,"ECCENTRICITY":0.000163,"INCLINATION":87.9238,"RA_OF_ASC_NODE":324.4897,"ARG_OF_PERICENTER":97.766,"MEAN_ANOMALY":262.3658,"EPHEMERIS_TYPE":0,"CLASSIFICATION_TYPE":"U","NORAD_CAT_ID":54123,"ELEMENT_SET_NO":999,"REV_AT_EPOCH":16388,"BSTAR":7.377418e-5,"MEAN_MOTION_DOT":4.2e-7,"MEAN_MOTION_DDOT":0},{"OBJECT_NAME":"ONEWEB-0506","OBJECT_ID":"2022-138M","EPOCH":"2026-03-11T05:17:18.315168","MEAN_MOTION":13.19724936,"ECCENTRICITY":0.00016418,"INCLINATION":87.9236,"RA_OF_ASC_NODE":324.477,"ARG_OF_PERICENTER":91.4442,"MEAN_ANOMALY":268.6879,"EPHEMERIS_TYPE":0,"CLASSIFICATION_TYPE":"U","NORAD_CAT_ID":54124,"ELEMENT_SET_NO":999,"REV_AT_EPOCH":16388,"BSTAR":9.7967531e-5,"MEAN_MOTION_DOT":5.2e-7,"MEAN_MOTION_DDOT":0},{"OBJECT_NAME":"ONEWEB-0507","OBJECT_ID":"2022-138N","EPOCH":"2026-03-11T03:57:41.366304","MEAN_MOTION":13.19724036,"ECCENTRICITY":0.00017433,"INCLINATION":87.9226,"RA_OF_ASC_NODE":324.5095,"ARG_OF_PERICENTER":87.3685,"MEAN_ANOMALY":272.7647,"EPHEMERIS_TYPE":0,"CLASSIFICATION_TYPE":"U","NORAD_CAT_ID":54125,"ELEMENT_SET_NO":999,"REV_AT_EPOCH":16392,"BSTAR":-3.669113e-6,"MEAN_MOTION_DOT":1.1e-7,"MEAN_MOTION_DDOT":0},{"OBJECT_NAME":"ONEWEB-0508","OBJECT_ID":"2022-138P","EPOCH":"2026-03-11T03:53:08.553120","MEAN_MOTION":13.19725313,"ECCENTRICITY":0.0001927,"INCLINATION":87.9227,"RA_OF_ASC_NODE":324.509,"ARG_OF_PERICENTER":93.6658,"MEAN_ANOMALY":266.4695,"EPHEMERIS_TYPE":0,"CLASSIFICATION_TYPE":"U","NORAD_CAT_ID":54126,"ELEMENT_SET_NO":999,"REV_AT_EPOCH":16390,"BSTAR":0.00019856199,"MEAN_MOTION_DOT":9.2e-7,"MEAN_MOTION_DDOT":0},{"OBJECT_NAME":"ONEWEB-0509","OBJECT_ID":"2022-138Q","EPOCH":"2026-03-11T05:05:55.933152","MEAN_MOTION":13.19724941,"ECCENTRICITY":0.00016894,"INCLINATION":87.9238,"RA_OF_ASC_NODE":324.4786,"ARG_OF_PERICENTER":82.6854,"MEAN_ANOMALY":277.4471,"EPHEMERIS_TYPE":0,"CLASSIFICATION_TYPE":"U","NORAD_CAT_ID":54127,"ELEMENT_SET_NO":999,"REV_AT_EPOCH":16388,"BSTAR":0.00018299959,"MEAN_MOTION_DOT":8.6e-7,"MEAN_MOTION_DDOT":0},{"OBJECT_NAME":"ONEWEB-0510","OBJECT_ID":"2022-138R","EPOCH":"2026-03-11T04:16:15.057120","MEAN_MOTION":13.20770696,"ECCENTRICITY":0.00016289,"INCLINATION":87.9169,"RA_OF_ASC_NODE":294.0053,"ARG_OF_PERICENTER":67.8532,"MEAN_ANOMALY":292.2774,"EPHEMERIS_TYPE":0,"CLASSIFICATION_TYPE":"U","NORAD_CAT_ID":54128,"ELEMENT_SET_NO":999,"REV_AT_EPOCH":16634,"BSTAR":0.00015868696,"MEAN_MOTION_DOT":7.8e-7,"MEAN_MOTION_DDOT":0},{"OBJECT_NAME":"ONEWEB-0511","OBJECT_ID":"2022-138S","EPOCH":"2026-03-11T05:01:22.579104","MEAN_MOTION":13.19724646,"ECCENTRICITY":0.00014227,"INCLINATION":87.9238,"RA_OF_ASC_NODE":324.4835,"ARG_OF_PERICENTER":78.7066,"MEAN_ANOMALY":281.4227,"EPHEMERIS_TYPE":0,"CLASSIFICATION_TYPE":"U","NORAD_CAT_ID":54129,"ELEMENT_SET_NO":999,"REV_AT_EPOCH":16391,"BSTAR":0.00017885517,"MEAN_MOTION_DOT":8.5e-7,"MEAN_MOTION_DDOT":0},{"OBJECT_NAME":"ONEWEB-0512","OBJECT_ID":"2022-138T","EPOCH":"2026-03-10T17:54:56.624544","MEAN_MOTION":13.19723979,"ECCENTRICITY":0.00015397,"INCLINATION":87.9227,"RA_OF_ASC_NODE":324.5893,"ARG_OF_PERICENTER":92.7492,"MEAN_ANOMALY":267.3817,"EPHEMERIS_TYPE":0,"CLASSIFICATION_TYPE":"U","NORAD_CAT_ID":54130,"ELEMENT_SET_NO":999,"REV_AT_EPOCH":16382,"BSTAR":-3.3491525e-5,"MEAN_MOTION_DOT":0,"MEAN_MOTION_DDOT":0},{"OBJECT_NAME":"ONEWEB-0513","OBJECT_ID":"2022-138U","EPOCH":"2026-03-11T04:06:40.087584","MEAN_MOTION":13.20262963,"ECCENTRICITY":0.00012203,"INCLINATION":87.9238,"RA_OF_ASC_NODE":324.4594,"ARG_OF_PERICENTER":113.4076,"MEAN_ANOMALY":246.7185,"EPHEMERIS_TYPE":0,"CLASSIFICATION_TYPE":"U","NORAD_CAT_ID":54131,"ELEMENT_SET_NO":999,"REV_AT_EPOCH":16378,"BSTAR":8.9704612e-5,"MEAN_MOTION_DOT":4.9e-7,"MEAN_MOTION_DDOT":0},{"OBJECT_NAME":"ONEWEB-0514","OBJECT_ID":"2022-138V","EPOCH":"2026-03-11T05:12:44.730432","MEAN_MOTION":13.19724133,"ECCENTRICITY":0.00016765,"INCLINATION":87.9228,"RA_OF_ASC_NODE":324.4849,"ARG_OF_PERICENTER":74.9844,"MEAN_ANOMALY":285.1475,"EPHEMERIS_TYPE":0,"CLASSIFICATION_TYPE":"U","NORAD_CAT_ID":54132,"ELEMENT_SET_NO":999,"REV_AT_EPOCH":16390,"BSTAR":6.633889e-6,"MEAN_MOTION_DOT":1.6e-7,"MEAN_MOTION_DDOT":0},{"OBJECT_NAME":"ONEWEB-0515","OBJECT_ID":"2022-138W","EPOCH":"2026-03-11T03:58:03.962496","MEAN_MOTION":13.20770409,"ECCENTRICITY":0.000232,"INCLINATION":87.917,"RA_OF_ASC_NODE":293.9967,"ARG_OF_PERICENTER":68.8404,"MEAN_ANOMALY":291.2977,"EPHEMERIS_TYPE":0,"CLASSIFICATION_TYPE":"U","NORAD_CAT_ID":54133,"ELEMENT_SET_NO":999,"REV_AT_EPOCH":16636,"BSTAR":0.00012211769,"MEAN_MOTION_DOT":6.3e-7,"MEAN_MOTION_DDOT":0},{"OBJECT_NAME":"ONEWEB-0516","OBJECT_ID":"2022-138X","EPOCH":"2026-03-11T06:25:32.529504","MEAN_MOTION":13.19724898,"ECCENTRICITY":0.00018081,"INCLINATION":87.9227,"RA_OF_ASC_NODE":324.4863,"ARG_OF_PERICENTER":82.638,"MEAN_ANOMALY":277.4958,"EPHEMERIS_TYPE":0,"CLASSIFICATION_TYPE":"U","NORAD_CAT_ID":54134,"ELEMENT_SET_NO":999,"REV_AT_EPOCH":16391,"BSTAR":0.0001556838,"MEAN_MOTION_DOT":7.5e-7,"MEAN_MOTION_DDOT":0},{"OBJECT_NAME":"ONEWEB-0517","OBJECT_ID":"2022-138Y","EPOCH":"2026-03-11T04:06:47.211264","MEAN_MOTION":13.19724849,"ECCENTRICITY":0.00014435,"INCLINATION":87.923,"RA_OF_ASC_NODE":324.4948,"ARG_OF_PERICENTER":76.4084,"MEAN_ANOMALY":283.7209,"EPHEMERIS_TYPE":0,"CLASSIFICATION_TYPE":"U","NORAD_CAT_ID":54135,"ELEMENT_SET_NO":999,"REV_AT_EPOCH":16390,"BSTAR":-0.0004034215,"MEAN_MOTION_DOT":-1.49e-6,"MEAN_MOTION_DDOT":0},{"OBJECT_NAME":"ONEWEB-0518","OBJECT_ID":"2022-138Z","EPOCH":"2026-03-11T06:23:15.558720","MEAN_MOTION":13.19724423,"ECCENTRICITY":0.00017206,"INCLINATION":87.9228,"RA_OF_ASC_NODE":324.4886,"ARG_OF_PERICENTER":85.8882,"MEAN_ANOMALY":274.2447,"EPHEMERIS_TYPE":0,"CLASSIFICATION_TYPE":"U","NORAD_CAT_ID":54136,"ELEMENT_SET_NO":999,"REV_AT_EPOCH":16391,"BSTAR":0.00016022273,"MEAN_MOTION_DOT":7.7e-7,"MEAN_MOTION_DDOT":0},{"OBJECT_NAME":"ONEWEB-0519","OBJECT_ID":"2022-138AA","EPOCH":"2026-03-11T03:21:18.335520","MEAN_MOTION":13.19725013,"ECCENTRICITY":0.00014707,"INCLINATION":87.9236,"RA_OF_ASC_NODE":324.4937,"ARG_OF_PERICENTER":78.8134,"MEAN_ANOMALY":281.3164,"EPHEMERIS_TYPE":0,"CLASSIFICATION_TYPE":"U","NORAD_CAT_ID":54137,"ELEMENT_SET_NO":999,"REV_AT_EPOCH":16390,"BSTAR":0.00028835178,"MEAN_MOTION_DOT":1.28e-6,"MEAN_MOTION_DDOT":0},{"OBJECT_NAME":"ONEWEB-0520","OBJECT_ID":"2022-138AB","EPOCH":"2026-03-11T04:11:20.860800","MEAN_MOTION":13.19724621,"ECCENTRICITY":0.00017232,"INCLINATION":87.9232,"RA_OF_ASC_NODE":324.4926,"ARG_OF_PERICENTER":88.2599,"MEAN_ANOMALY":271.8731,"EPHEMERIS_TYPE":0,"CLASSIFICATION_TYPE":"U","NORAD_CAT_ID":54138,"ELEMENT_SET_NO":999,"REV_AT_EPOCH":16389,"BSTAR":-3.0984144e-5,"MEAN_MOTION_DOT":1.0e-8,"MEAN_MOTION_DDOT":0},{"OBJECT_NAME":"ONEWEB-0521","OBJECT_ID":"2022-138AC","EPOCH":"2026-03-11T04:59:06.189792","MEAN_MOTION":13.19724602,"ECCENTRICITY":0.00015289,"INCLINATION":87.9237,"RA_OF_ASC_NODE":324.4701,"ARG_OF_PERICENTER":72.9595,"MEAN_ANOMALY":287.1706,"EPHEMERIS_TYPE":0,"CLASSIFICATION_TYPE":"U","NORAD_CAT_ID":54139,"ELEMENT_SET_NO":999,"REV_AT_EPOCH":16384,"BSTAR":7.6356526e-5,"MEAN_MOTION_DOT":4.4e-7,"MEAN_MOTION_DDOT":0}]
