ONEWEB-0505             
1 54123U 22138L   26070.16980914  .00000042  00000+0  73774-4 0  9991
2 54123  87.9238 324.4897 0001630  97.7660 262.3658 13.19724923163885
ONEWEB-0506             
1 54124U 22138M   26070.22035087  .00000052  00000+0  97968-4 0  9993
2 54124  87.9236 324.4770 0001641  91.4442 268.6879 13.19724936163883
ONEWEB-0507             
1 54125U 22138N   26070.16506211  .00000011  00000+0 -36691-5 0  9992
2 54125  87.9226 324.5095 0001743  87.3685 272.7647 13.19724036163925
ONEWEB-0508             
1 54126U 22138P   26070.16190455  .00000092  00000+0  19856-3 0  9992
2 54126  87.9227 324.5090 0001927  93.6658 266.4695 13.19725313163906
ONEWEB-0509             
1 54127U 22138Q   26070.21245293  .00000086  00000+0  18300-3 0  9996
2 54127  87.9238 324.4786 0001689  82.6854 277.4471 13.19724941163888
ONEWEB-0510             
1 54128U 22138R   26070.17795205  .00000078  00000+0  15869-3 0  9993
2 54128  87.9169 294.0053 0001628  67.8532 292.2774 13.20770696166347
ONEWEB-0511             
1 54129U 22138S   26070.20928911  .00000085  00000+0  17886-3 0  9999
2 54129  87.9238 324.4835 0001422  78.7066 281.4227 13.19724646163911
ONEWEB-0512             
1 54130U 22138T   26069.74648871  .00000000  00000+0 -33492-4 0  9992
2 54130  87.9227 324.5893 0001539  92.7492 267.3817 13.19723979163820
ONEWEB-0513             
1 54131U 22138U   26070.17129731  .00000049  00000+0  89705-4 0  9991
2 54131  87.9238 324.4594 0001220 113.4076 246.7185 13.20262963163783
ONEWEB-0514             
1 54132U 22138V   26070.21718438  .00000016  00000+0  66339-5 0  9998
2 54132  87.9228 324.4849 0001676  74.9844 285.1475 13.19724133163908
ONEWEB-0515             
1 54133U 22138W   26070.16532364  .00000063  00000+0  12212-3 0  9996
2 54133  87.9170 293.9967 0002320  68.8404 291.2977 13.20770409166364
ONEWEB-0516             
1 54134U 22138X   26070.26773761  .00000075  00000+0  15568-3 0  9996
2 54134  87.9227 324.4863 0001808  82.6380 277.4958 13.19724898163912
ONEWEB-0517             
1 54135U 22138Y   26070.17137976 -.00000149  00000+0 -40342-3 0  9991
2 54135  87.9230 324.4948 0001443  76.4084 283.7209 13.19724849163902
ONEWEB-0518             
1 54136U 22138Z   26070.26615230  .00000077  00000+0  16022-3 0  9992
2 54136  87.9228 324.4886 0001720  85.8882 274.2447 13.19724423163917
ONEWEB-0519             
1 54137U 22138AA  26070.13979555  .00000128  00000+0  28835-3 0  9994
2 54137  87.9236 324.4937 0001470  78.8134 281.3164 13.19725013163908
ONEWEB-0520             
1 54138U 22138AB  26070.17454700  .00000001  00000+0 -30984-4 0  9999
2 54138  87.9232 324.4926 0001723  88.2599 271.8731 13.19724621163890
ONEWEB-0521             
1 54139U 22138AC  26070.20771053  .00000044  00000+0  76357-4 0  9997
2 54139  87.9237 324.4701 0001528  72.9595 287.1706 13.19724602163842
